{"type": "FeatureCollection", "features": [ {"type": "Feature", "properties": {"norad_id": 66609, "name": "STARLINK-36034", "group": "last-30-days", "lat": -33.654815471789654, "lon": 125.31119936756235, "alt_km": 416.7870740688886, "timestamp": "2025-12-16T10:53:44.205457+00:00", "meta": {"OBJECT_NAME": "STARLINK-36034", "OBJECT_ID": "2025-270X", "EPOCH": "2025-12-15T21:12:57.914496", "MEAN_MOTION": 15.50590248, "ECCENTRICITY": 0.00015567, "INCLINATION": 42.9984, "RA_OF_ASC_NODE": 174.2494, "ARG_OF_PERICENTER": 272.2443, "MEAN_ANOMALY": 87.8239, "EPHEMERIS_TYPE": 0, "CLASSIFICATION_TYPE": "U", "NORAD_CAT_ID": 66609, "ELEMENT_SET_NO": 999, "REV_AT_EPOCH": 467, "BSTAR": 0.001140699, "MEAN_MOTION_DOT": 0.00067181, "MEAN_MOTION_DDOT": 0}, "tle": {"line1": "1 66609U 25270X   25349.88400364  .00067181  00000+0  11407-2 0  9996", "line2": "2 66609  42.9984 174.2494 0001556 272.2443  87.8239 15.50590248  4670"}}, "geometry": {"type": "Point", "coordinates": [125.31119936756235, -33.654815471789654]}}, {"type": "Feature", "properties": {"norad_id": 66610, "name": "STARLINK-35680", "group": "last-30-days", "lat": -32.71772416469214, "lon": 127.32249295954877, "alt_km": 416.62427988775926, "timestamp": "2025-12-16T10:53:44.205467+00:00", "meta": {"OBJECT_NAME": "STARLINK-35680", "OBJECT_ID": "2025-270Y", "EPOCH": "2025-12-15T21:12:28.233504", "MEAN_MOTION": 15.50596666, "ECCENTRICITY": 0.00016123, "INCLINATION": 42.9984, "RA_OF_ASC_NODE": 174.2461, "ARG_OF_PERICENTER": 280.5152, "MEAN_ANOMALY": 79.5526, "EPHEMERIS_TYPE": 0, "CLASSIFICATION_TYPE": "U", "NORAD_CAT_ID": 66610, "ELEMENT_SET_NO": 999, "REV_AT_EPOCH": 494, "BSTAR": 0.0011607312, "MEAN_MOTION_DOT": 0.00068394, "MEAN_MOTION_DDOT": 0}, "tle": {"line1": "1 66610U 25270Y   25349.88366011  .00068394  00000+0  11607-2 0  9997", "line2": "2 66610  42.9984 174.2461 0001612 280.5152  79.5526 15.50596666  4945"}}, "geometry": {"type": "Point", "coordinates": [127.32249295954877, -32.71772416469214]}}, {"type": "Feature", "properties": {"norad_id": 66611, "name": "STARLINK-35583", "group": "last-30-days", "lat": -31.758562445804348, "lon": 129.27336063279802, "alt_km": 416.6454043120084, "timestamp": "2025-12-16T10:53:44.205477+00:00", "meta": {"OBJECT_NAME": "STARLINK-35583", "OBJECT_ID": "2025-270Z", "EPOCH": "2025-12-15T21:11:58.559424", "MEAN_MOTION": 15.50594696, "ECCENTRICITY": 0.00017123, "INCLINATION": 42.9986, "RA_OF_ASC_NODE": 174.2435, "ARG_OF_PERICENTER": 269.9068, "MEAN_ANOMALY": 90.1596, "EPHEMERIS_TYPE": 0, "CLASSIFICATION_TYPE": "U", "NORAD_CAT_ID": 66611, "ELEMENT_SET_NO": 999, "REV_AT_EPOCH": 494, "BSTAR": 0.0011028736, "MEAN_MOTION_DOT": 0.00064934, "MEAN_MOTION_DDOT": 0}, "tle": {"line1": "1 66611U 25270Z   25349.88331666  .00064934  00000+0  11029-2 0  9990", "line2": "2 66611  42.9986 174.2435 0001712 269.9068  90.1596 15.50594696  4944"}}, "geometry": {"type": "Point", "coordinates": [129.27336063279802, -31.758562445804348]}}, {"type": "Feature", "properties": {"norad_id": 66612, "name": "STARLINK-36039", "group": "last-30-days", "lat": -0.07035426695635433, "lon": -8.704103608099388, "alt_km": 443.7483288873291, "timestamp": "2025-12-16T10:53:44.205487+00:00", "meta": {"OBJECT_NAME": "STARLINK-36039", "OBJECT_ID": "2025-270AA", "EPOCH": "2025-12-15T22:00:01.999584", "MEAN_MOTION": 15.40665084, "ECCENTRICITY": 0.00020106, "INCLINATION": 42.9997, "RA_OF_ASC_NODE": 174.3174, "ARG_OF_PERICENTER": 269.7093, "MEAN_ANOMALY": 166.6598, "EPHEMERIS_TYPE": 0, "CLASSIFICATION_TYPE": "U", "NORAD_CAT_ID": 66612, "ELEMENT_SET_NO": 999, "REV_AT_EPOCH": 491, "BSTAR": 0.0019633233, "MEAN_MOTION_DOT": 0.00082507, "MEAN_MOTION_DDOT": 0}, "tle": {"line1": "1 66612U 25270AA  25349.91668981  .00082507  00000+0  19633-2 0  9993", "line2": "2 66612  42.9997 174.3174 0002010 269.7093 166.6598 15.40665084  4913"}}, "geometry": {"type": "Point", "coordinates": [-8.704103608099388, -0.07035426695635433]}}, {"type": "Feature", "properties": {"norad_id": 66613, "name": "STARLINK-36037", "group": "last-30-days", "lat": -16.732169693000277, "lon": 9.981636141892972, "alt_km": 445.19072171993776, "timestamp": "2025-12-16T10:53:44.205500+00:00", "meta": {"OBJECT_NAME": "STARLINK-36037", "OBJECT_ID": "2025-270AB", "EPOCH": "2025-12-15T22:00:01.999584", "MEAN_MOTION": 15.40665862, "ECCENTRICITY": 0.00016393, "INCLINATION": 42.9995, "RA_OF_ASC_NODE": 174.2574, "ARG_OF_PERICENTER": 273.0598, "MEAN_ANOMALY": 188.1828, "EPHEMERIS_TYPE": 0, "CLASSIFICATION_TYPE": "U", "NORAD_CAT_ID": 66613, "ELEMENT_SET_NO": 999, "REV_AT_EPOCH": 491, "BSTAR": 0.0020157597, "MEAN_MOTION_DOT": 0.00084744, "MEAN_MOTION_DDOT": 0}, "tle": {"line1": "1 66613U 25270AB  25349.91668981  .00084744  00000+0  20158-2 0  9993", "line2": "2 66613  42.9995 174.2574 0001639 273.0598 188.1828 15.40665862  4918"}}, "geometry": {"type": "Point", "coordinates": [9.981636141892972, -16.732169693000277]}}, {"type": "Feature", "properties": {"norad_id": 66614, "name": "STARLINK-36040", "group": "last-30-days", "lat": -31.384753009257, "lon": 130.0048656536934, "alt_km": 423.9612313574935, "timestamp": "2025-12-16T10:53:44.205511+00:00", "meta": {"OBJECT_NAME": "STARLINK-36040", "OBJECT_ID": "2025-270AC", "EPOCH": "2025-12-15T21:10:37.050528", "MEAN_MOTION": 15.48665597, "ECCENTRICITY": 0.00013904, "INCLINATION": 42.9985, "RA_OF_ASC_NODE": 174.2343, "ARG_OF_PERICENTER": 275.5577, "MEAN_ANOMALY": 84.5123, "EPHEMERIS_TYPE": 0, "CLASSIFICATION_TYPE": "U", "NORAD_CAT_ID": 66614, "ELEMENT_SET_NO": 999, "REV_AT_EPOCH": 467, "BSTAR": -0.0075644796, "MEAN_MOTION_DOT": -0.00394736, "MEAN_MOTION_DDOT": 0}, "tle": {"line1": "1 66614U 25270AC  25349.88237327 -.00394736  00000+0 -75645-2 0  9994", "line2": "2 66614  42.9985 174.2343 0001390 275.5577  84.5123 15.48665597  4673"}}, "geometry": {"type": "Point", "coordinates": [130.0048656536934, -31.384753009257]}}, {"type": "Feature", "properties": {"norad_id": 66615, "name": "STARLINK-35988", "group": "last-30-days", "lat": -37.11077142558646, "lon": 45.35464397121598, "alt_km": 446.11896791802246, "timestamp": "2025-12-16T10:53:44.205521+00:00", "meta": {"OBJECT_NAME": "STARLINK-35988", "OBJECT_ID": "2025-270AD", "EPOCH": "2025-12-15T22:00:01.999584", "MEAN_MOTION": 15.40657087, "ECCENTRICITY": 0.00015212, "INCLINATION": 42.9994, "RA_OF_ASC_NODE": 174.1661, "ARG_OF_PERICENTER": 262.6113, "MEAN_ANOMALY": 235.9647, "EPHEMERIS_TYPE": 0, "CLASSIFICATION_TYPE": "U", "NORAD_CAT_ID": 66615, "ELEMENT_SET_NO": 999, "REV_AT_EPOCH": 475, "BSTAR": 0.0017056548, "MEAN_MOTION_DOT": 0.00071515, "MEAN_MOTION_DDOT": 0}, "tle": {"line1": "1 66615U 25270AD  25349.91668981  .00071515  00000+0  17057-2 0  9991", "line2": "2 66615  42.9994 174.1661 0001521 262.6113 235.9647 15.40657087  4754"}}, "geometry": {"type": "Point", "coordinates": [45.35464397121598, -37.11077142558646]}}, {"type": "Feature", "properties": {"norad_id": 66616, "name": "STARLINK-35391", "group": "last-30-days", "lat": -26.556794021853364, "lon": 138.44089204154494, "alt_km": 416.65213930837035, "timestamp": "2025-12-16T10:53:44.205531+00:00", "meta": {"OBJECT_NAME": "STARLINK-35391", "OBJECT_ID": "2025-270AE", "EPOCH": "2025-12-15T21:09:30.478464", "MEAN_MOTION": 15.50588525, "ECCENTRICITY": 0.00017161, "INCLINATION": 42.9985, "RA_OF_ASC_NODE": 174.2291, "ARG_OF_PERICENTER": 257.1276, "MEAN_ANOMALY": 102.9393, "EPHEMERIS_TYPE": 0, "CLASSIFICATION_TYPE": "U", "NORAD_CAT_ID": 66616, "ELEMENT_SET_NO": 999, "REV_AT_EPOCH": 494, "BSTAR": 0.0010628928, "MEAN_MOTION_DOT": 0.00062535, "MEAN_MOTION_DDOT": 0}, "tle": {"line1": "1 66616U 25270AE  25349.88160276  .00062535  00000+0  10629-2 0  9992", "line2": "2 66616  42.9985 174.2291 0001716 257.1276 102.9393 15.50588525  4943"}}, "geometry": {"type": "Point", "coordinates": [138.44089204154494, -26.556794021853364]}}, {"type": "Feature", "properties": {"norad_id": 66617, "name": "STARLINK-35940", "group": "last-30-days", "lat": -45.29016851859682, "lon": 38.81540348509533, "alt_km": 452.5086299780951, "timestamp": "2025-12-16T10:53:44.205542+00:00", "meta": {"OBJECT_NAME": "STARLINK-35940", "OBJECT_ID": "2025-271A", "EPOCH": "2025-12-15T22:00:01.999584", "MEAN_MOTION": 15.395204, "ECCENTRICITY": 0.00014614, "INCLINATION": 53.1592, "RA_OF_ASC_NODE": 172.1147, "ARG_OF_PERICENTER": 111.3271, "MEAN_ANOMALY": 31.6718, "EPHEMERIS_TYPE": 0, "CLASSIFICATION_TYPE": "U", "NORAD_CAT_ID": 66617, "ELEMENT_SET_NO": 999, "REV_AT_EPOCH": 475, "BSTAR": 0.0019451682, "MEAN_MOTION_DOT": 0.00077949, "MEAN_MOTION_DDOT": 0}, "tle": {"line1": "1 66617U 25271A   25349.91668981  .00077949  00000+0  19452-2 0  9992", "line2": "2 66617  53.1592 172.1147 0001461 111.3271  31.6718 15.39520400  4755"}}, "geometry": {"type": "Point", "coordinates": [38.81540348509533, -45.29016851859682]}}, {"type": "Feature", "properties": {"norad_id": 66618, "name": "STARLINK-35970", "group": "last-30-days", "lat": -8.20685749347771, "lon": 163.15451408127012, "alt_km": 420.4720848518027, "timestamp": "2025-12-16T10:53:44.205552+00:00", "meta": {"OBJECT_NAME": "STARLINK-35970", "OBJECT_ID": "2025-271B", "EPOCH": "2025-12-15T22:00:01.999584", "MEAN_MOTION": 15.49255257, "ECCENTRICITY": 8.479e-05, "INCLINATION": 53.1588, "RA_OF_ASC_NODE": 171.932, "ARG_OF_PERICENTER": 69.2522, "MEAN_ANOMALY": 162.1332, "EPHEMERIS_TYPE": 0, "CLASSIFICATION_TYPE": "U", "NORAD_CAT_ID": 66618, "ELEMENT_SET_NO": 999, "REV_AT_EPOCH": 475, "BSTAR": 0.001432041, "MEAN_MOTION_DOT": 0.00079862, "MEAN_MOTION_DDOT": 0}, "tle": {"line1": "1 66618U 25271B   25349.91668981  .00079862  00000+0  14320-2 0  9998", "line2": "2 66618  53.1588 171.9320 0000847  69.2522 162.1332 15.49255257  4756"}}, "geometry": {"type": "Point", "coordinates": [163.15451408127012, -8.20685749347771]}}]}